CCSDS_OMM_VERS = 2.0
CREATION_DATE  = 
ORIGINATOR     = 

OBJECT_NAME    = STARLINK-35444
OBJECT_ID      = 2025-263AC
CENTER_NAME    = EARTH
REF_FRAME      = TEME
TIME_SYSTEM    = UTC
MEAN_ELEMENT_THEORY = SGP/SGP4

EPOCH          = 2025-11-21T16:00:05.000256
MEAN_MOTION    = 16.03283905
ECCENTRICITY   = .0002175
INCLINATION    = 43.0007
RA_OF_ASC_NODE = 252.5046
ARG_OF_PERICENTER = 258.6878
MEAN_ANOMALY   = 114.7504

EPHEMERIS_TYPE = 0
CLASSIFICATION_TYPE = U
NORAD_CAT_ID   = 66511
ELEMENT_SET_NO = 999
REV_AT_EPOCH   = 224
BSTAR          = -.17432E-2
MEAN_MOTION_DOT = -.1125853E-1
MEAN_MOTION_DDOT = .42209E-3

CCSDS_OMM_VERS = 2.0
CREATION_DATE  = 
ORIGINATOR     = 

OBJECT_NAME    = STARLINK-35366
OBJECT_ID      = 2025-263AD
CENTER_NAME    = EARTH
REF_FRAME      = TEME
TIME_SYSTEM    = UTC
MEAN_ELEMENT_THEORY = SGP/SGP4

EPOCH          = 2025-11-21T16:00:05.000256
MEAN_MOTION    = 16.03542628
ECCENTRICITY   = .0002095
INCLINATION    = 43.0005
RA_OF_ASC_NODE = 252.4952
ARG_OF_PERICENTER = 258.1982
MEAN_ANOMALY   = 118.8515

EPHEMERIS_TYPE = 0
CLASSIFICATION_TYPE = U
NORAD_CAT_ID   = 66512
ELEMENT_SET_NO = 999
REV_AT_EPOCH   = 224
BSTAR          = -.17213E-2
MEAN_MOTION_DOT = -.1129049E-1
MEAN_MOTION_DDOT = .42552E-3

CCSDS_OMM_VERS = 2.0
CREATION_DATE  = 
ORIGINATOR     = 

OBJECT_NAME    = STARLINK-35692
OBJECT_ID      = 2025-263AE
CENTER_NAME    = EARTH
REF_FRAME      = TEME
TIME_SYSTEM    = UTC
MEAN_ELEMENT_THEORY = SGP/SGP4

EPOCH          = 2025-11-21T16:00:05.000256
MEAN_MOTION    = 16.03188374
ECCENTRICITY   = .0002111
INCLINATION    = 43.0008
RA_OF_ASC_NODE = 252.5084
ARG_OF_PERICENTER = 259.9229
MEAN_ANOMALY   = 111.9650

EPHEMERIS_TYPE = 0
CLASSIFICATION_TYPE = U
NORAD_CAT_ID   = 66513
ELEMENT_SET_NO = 999
REV_AT_EPOCH   = 224
BSTAR          = -.17651E-2
MEAN_MOTION_DOT = -.113341E-1
MEAN_MOTION_DDOT = .42682E-3

CCSDS_OMM_VERS = 2.0
CREATION_DATE  = 
ORIGINATOR     = 

OBJECT_NAME    = SENTINEL-6B
OBJECT_ID      = 2025-264A
CENTER_NAME    = EARTH
REF_FRAME      = TEME
TIME_SYSTEM    = UTC
MEAN_ELEMENT_THEORY = SGP/SGP4

EPOCH          = 2025-11-22T02:11:54.436992
MEAN_MOTION    = 12.85876837
ECCENTRICITY   = .0011532
INCLINATION    = 66.0399
RA_OF_ASC_NODE = 205.6270
ARG_OF_PERICENTER = 270.7520
MEAN_ANOMALY   = 89.2176

EPHEMERIS_TYPE = 0
CLASSIFICATION_TYPE = U
NORAD_CAT_ID   = 66514
ELEMENT_SET_NO = 999
REV_AT_EPOCH   = 63
BSTAR          = .41457E-2
MEAN_MOTION_DOT = .962E-5
MEAN_MOTION_DDOT = 0

CCSDS_OMM_VERS = 2.0
CREATION_DATE  = 
ORIGINATOR     = 

OBJECT_NAME    = SZ-21 MODULE
OBJECT_ID      = 2025-246C
CENTER_NAME    = EARTH
REF_FRAME      = TEME
TIME_SYSTEM    = UTC
MEAN_ELEMENT_THEORY = SGP/SGP4

EPOCH          = 2025-11-21T22:45:30.059712
MEAN_MOTION    = 15.61102603
ECCENTRICITY   = .0004546
INCLINATION    = 41.4747
RA_OF_ASC_NODE = 142.7430
ARG_OF_PERICENTER = 115.8358
MEAN_ANOMALY   = 244.2950

EPHEMERIS_TYPE = 0
CLASSIFICATION_TYPE = U
NORAD_CAT_ID   = 66515
ELEMENT_SET_NO = 999
REV_AT_EPOCH   = 119
BSTAR          = .30214E-3
MEAN_MOTION_DOT = .25972E-3
MEAN_MOTION_DDOT = 0

CCSDS_OMM_VERS = 2.0
CREATION_DATE  = 
ORIGINATOR     = 

OBJECT_NAME    = SHIJIAN-30A
OBJECT_ID      = 2025-266A
CENTER_NAME    = EARTH
REF_FRAME      = TEME
TIME_SYSTEM    = UTC
MEAN_ELEMENT_THEORY = SGP/SGP4

EPOCH          = 2025-11-22T10:41:32.820864
MEAN_MOTION    = 15.15632932
ECCENTRICITY   = .0012821
INCLINATION    = 51.7999
RA_OF_ASC_NODE = 67.9164
ARG_OF_PERICENTER = 284.3607
MEAN_ANOMALY   = 75.5946

EPHEMERIS_TYPE = 0
CLASSIFICATION_TYPE = U
NORAD_CAT_ID   = 66545
ELEMENT_SET_NO = 999
REV_AT_EPOCH   = 50
BSTAR          = .5886E-3
MEAN_MOTION_DOT = .11057E-3
MEAN_MOTION_DDOT = 0

CCSDS_OMM_VERS = 2.0
CREATION_DATE  = 
ORIGINATOR     = 

OBJECT_NAME    = SHIJIAN-30B
OBJECT_ID      = 2025-266B
CENTER_NAME    = EARTH
REF_FRAME      = TEME
TIME_SYSTEM    = UTC
MEAN_ELEMENT_THEORY = SGP/SGP4

EPOCH          = 2025-11-22T10:42:18.974016
MEAN_MOTION    = 15.15394110
ECCENTRICITY   = .0010496
INCLINATION    = 51.7981
RA_OF_ASC_NODE = 67.9201
ARG_OF_PERICENTER = 283.6229
MEAN_ANOMALY   = 76.3578

EPHEMERIS_TYPE = 0
CLASSIFICATION_TYPE = U
NORAD_CAT_ID   = 66546
ELEMENT_SET_NO = 999
REV_AT_EPOCH   = 50
BSTAR          = .72218E-3
MEAN_MOTION_DOT = .1354E-3
MEAN_MOTION_DDOT = 0

CCSDS_OMM_VERS = 2.0
CREATION_DATE  = 
ORIGINATOR     = 

OBJECT_NAME    = SHIJIAN-30C
OBJECT_ID      = 2025-266C
CENTER_NAME    = EARTH
REF_FRAME      = TEME
TIME_SYSTEM    = UTC
MEAN_ELEMENT_THEORY = SGP/SGP4

EPOCH          = 2025-11-22T10:43:03.323136
MEAN_MOTION    = 15.15147503
ECCENTRICITY   = .0011253
INCLINATION    = 51.7992
RA_OF_ASC_NODE = 67.9230
ARG_OF_PERICENTER = 276.8652
MEAN_ANOMALY   = 83.1044

EPHEMERIS_TYPE = 0
CLASSIFICATION_TYPE = U
NORAD_CAT_ID   = 66547
ELEMENT_SET_NO = 999
REV_AT_EPOCH   = 50
BSTAR          = .6282E-3
MEAN_MOTION_DOT = .11653E-3
MEAN_MOTION_DDOT = 0

CCSDS_OMM_VERS = 2.0
CREATION_DATE  = 
ORIGINATOR     = 

OBJECT_NAME    = CZ-2C R/B
OBJECT_ID      = 2025-266D
CENTER_NAME    = EARTH
REF_FRAME      = TEME
TIME_SYSTEM    = UTC
MEAN_ELEMENT_THEORY = SGP/SGP4

EPOCH          = 2025-11-22T06:51:21.648672
MEAN_MOTION    = 15.29542109
ECCENTRICITY   = .0085418
INCLINATION    = 52.0564
RA_OF_ASC_NODE = 68.6780
ARG_OF_PERICENTER = 103.3883
MEAN_ANOMALY   = 257.6642

EPHEMERIS_TYPE = 0
CLASSIFICATION_TYPE = U
NORAD_CAT_ID   = 66548
ELEMENT_SET_NO = 999
REV_AT_EPOCH   = 48
BSTAR          = .50334E-3
MEAN_MOTION_DOT = .15968E-3
MEAN_MOTION_DDOT = 0

CCSDS_OMM_VERS = 2.0
CREATION_DATE  = 
ORIGINATOR     = 

OBJECT_NAME    = TJS-21
OBJECT_ID      = 2025-269A
CENTER_NAME    = EARTH
REF_FRAME      = TEME
TIME_SYSTEM    = UTC
MEAN_ELEMENT_THEORY = SGP/SGP4

EPOCH          = 2025-11-22T00:38:55.863744
MEAN_MOTION    = 2.00919486
ECCENTRICITY   = .7516027
INCLINATION    = 51.0640
RA_OF_ASC_NODE = 174.7014
ARG_OF_PERICENTER = 225.0831
MEAN_ANOMALY   = 41.6475

EPHEMERIS_TYPE = 0
CLASSIFICATION_TYPE = U
NORAD_CAT_ID   = 66586
ELEMENT_SET_NO = 999
REV_AT_EPOCH   = 2
BSTAR          = .52951E-3
MEAN_MOTION_DOT = .2407E-4
MEAN_MOTION_DDOT = 0

CCSDS_OMM_VERS = 2.0
CREATION_DATE  = 
ORIGINATOR     = 

OBJECT_NAME    = CZ-3B R/B
OBJECT_ID      = 2025-269B
CENTER_NAME    = EARTH
REF_FRAME      = TEME
TIME_SYSTEM    = UTC
MEAN_ELEMENT_THEORY = SGP/SGP4

EPOCH          = 2025-11-21T12:42:23.351616
MEAN_MOTION    = 2.01465750
ECCENTRICITY   = .7521144
INCLINATION    = 51.3636
RA_OF_ASC_NODE = 174.5119
ARG_OF_PERICENTER = 224.9566
MEAN_ANOMALY   = 41.7220

EPHEMERIS_TYPE = 0
CLASSIFICATION_TYPE = U
NORAD_CAT_ID   = 66587
ELEMENT_SET_NO = 999
REV_AT_EPOCH   = 2
BSTAR          = .51894E-3
MEAN_MOTION_DOT = .6929E-4
MEAN_MOTION_DDOT = -.86139E-6

